NORAD_CAT_ID,OBJECT_NAME,OBJECT_TYPE,EPOCH,MEAN_MOTION,ECCENTRICITY,INCLINATION,RA_OF_ASC_NODE,ARG_OF_PERICENTER,MEAN_ANOMALY,BSTAR,MEAN_MOTION_DOT,MEAN_MOTION_DDOT,TLE_LINE0,TLE_LINE1,TLE_LINE2,SEMIMAJOR_AXIS,PERIOD,APOGEE,PERIGEE,DECAYED
55748.0,STARLINK-5580,PAYLOAD,2024-06-23 21:56:51,14.98328375,0.0002966,69.9999,17.2563,268.2652,91.8167,1.6656e-06,-7.3e-07,0.0,0 STARLINK-5580,1 55748U 23028H   24175.91448590 -.00000073  00000-0  16656-5 0  9993,2 55748  69.9999  17.2563 0002966 268.2652  91.8167 14.98328375 72607,6950.198,96.107,574.124,570.001,0.0
55748.0,STARLINK-5580,PAYLOAD,2024-06-24 13:58:11,14.98333998,0.000305,69.9997,15.5729,269.7393,90.3416,7.7258e-05,8.29e-06,0.0,0 STARLINK-5580,1 55748U 23028H   24176.58208023  .00000829  00000-0  77258-4 0  9994,2 55748  69.9997  15.5729 0003050 269.7393  90.3416 14.98333998 72702,6950.181,96.107,574.165,569.926,0.0
55748.0,STARLINK-5580,PAYLOAD,2024-06-24 20:22:43,14.98336014,0.0003026,69.9999,14.8994,270.1961,89.8852,0.00010047,1.106e-05,0.0,0 STARLINK-5580,1 55748U 23028H   24176.84911794  .00001106  00000-0  10047-3 0  9990,2 55748  69.9999  14.8994 0003026 270.1961  89.8852 14.98336014 72743,6950.174,96.107,574.142,569.936,0.0
55748.0,STARLINK-5580,PAYLOAD,2024-06-24 21:58:51,14.98336993,0.000301,69.9999,14.7312,269.7672,90.3142,0.00011105,1.232e-05,0.0,0 STARLINK-5580,1 55748U 23028H   24176.91587687  .00001232  00000-0  11105-3 0  9994,2 55748  69.9999  14.7312 0003010 269.7672  90.3142 14.98336993 72758,6950.171,96.107,574.128,569.944,0.0
55748.0,STARLINK-5580,PAYLOAD,2024-06-25 14:00:12,14.98331142,0.0002914,70.0001,13.0483,267.1443,92.9383,0.00011996,1.339e-05,0.0,0 STARLINK-5580,1 55748U 23028H   24177.58347924  .00001339  00000-0  11996-3 0  9992,2 55748  70.0001  13.0483 0002914 267.1443  92.9383 14.98331142 72853,6950.189,96.107,574.08,570.029,0.0
55748.0,STARLINK-5580,PAYLOAD,2024-06-25 20:24:44,14.98332465,0.0002903,70.0001,12.3749,267.0439,93.0388,0.00012897,1.446e-05,0.0,0 STARLINK-5580,1 55748U 23028H   24177.85051814  .00001446  00000-0  12897-3 0  9992,2 55748  70.0001  12.3749 0002903 267.0439  93.0388 14.98332465 72892,6950.185,96.107,574.068,570.033,0.0
55748.0,STARLINK-5580,PAYLOAD,2024-06-25 22:00:52,14.98336641,0.0002832,70.0002,12.2068,265.5663,94.5173,0.00018028,2.059e-05,0.0,0 STARLINK-5580,1 55748U 23028H   24177.91727410  .00002059  00000-0  18028-3 0  9994,2 55748  70.0002  12.2068 0002832 265.5663  94.5173 14.98336641 72909,6950.172,96.107,574.006,570.069,0.0
55748.0,STARLINK-5580,PAYLOAD,2024-06-25 23:37:00,14.98336731,0.0002818,70.0009,12.0401,258.0185,102.0658,0.00024904,2.88e-05,0.0,0 STARLINK-5580,1 55748U 23028H   24177.98403226  .00002880  00000-0  24904-3 0  9999,2 55748  70.0009  12.0401 0002818 258.0185 102.0658 14.98336731 72919,6950.172,96.107,573.996,570.079,0.0
55748.0,STARLINK-5580,PAYLOAD,2024-06-27 06:03:32,14.98342151,0.0002846,70.0009,8.8412,265.5675,94.5159,0.0001135,1.262e-05,0.0,0 STARLINK-5580,1 55748U 23028H   24179.25246364  .00001262  00000-0  11350-3 0  9993,2 55748  70.0009   8.8412 0002846 265.5675  94.5159 14.98342151 73108,6950.155,96.106,573.998,570.042,0.0
55748.0,STARLINK-5580,PAYLOAD,2024-06-27 20:28:46,14.98324208,0.0002857,69.9998,7.3245,268.792,91.2912,-0.00013123,-1.658e-05,0.0,0 STARLINK-5580,1 55748U 23028H   24179.85331804 -.00001658  00000-0 -13123-3 0  9994,2 55748  69.9998   7.3245 0002857 268.7920  91.2912 14.98324208 73193,6950.211,96.107,574.061,570.09,0.0
55748.0,STARLINK-5580,PAYLOAD,2024-06-27 22:04:54,14.98324605,0.0002824,70.0,7.1563,268.8326,91.251,-0.00011865,-1.508e-05,0.0,0 STARLINK-5580,1 55748U 23028H   24179.92007780 -.00001508  00000-0 -11865-3 0  9990,2 55748  70.0000   7.1563 0002824 268.8326  91.2510 14.98324605 73203,6950.21,96.107,574.037,570.112,0.0
55748.0,STARLINK-5580,PAYLOAD,2024-06-28 06:05:34,14.98334985,0.0003074,70.0,6.314,263.6686,96.4123,-0.00016908,-2.11e-05,0.0,0 STARLINK-5580,1 55748U 23028H   24180.25387173 -.00002110  00000-0 -16908-3 0  9998,2 55748  70.0000   6.3140 0003074 263.6686  96.4123 14.98334985 73259,6950.177,96.107,574.179,569.906,0.0
55748.0,STARLINK-5580,PAYLOAD,2024-06-28 14:06:14,14.98319722,0.0002916,69.9998,5.4722,270.7222,89.3603,0.00030534,3.551e-05,0.0,0 STARLINK-5580,1 55748U 23028H   24180.58766977  .00003551  00000-0  30534-3 0  9996,2 55748  69.9998   5.4722 0002916 270.7222  89.3603 14.98319722 73309,6950.225,96.108,574.116,570.063,0.0
55748.0,STARLINK-5580,PAYLOAD,2024-06-28 22:06:55,14.98335689,0.0002895,70.0018,4.6307,271.5398,88.5429,0.00077526,9.171e-05,0.0,0 STARLINK-5580,1 55748U 23028H   24180.92147270  .00009171  00000-0  77526-3 0  9999,2 55748  70.0018   4.6307 0002895 271.5398  88.5429 14.98335689 73356,6950.175,96.107,574.052,570.028,0.0
55748.0,STARLINK-5580,PAYLOAD,2024-06-29 12:32:08,14.98326669,0.0002861,70.0017,3.1153,271.1506,88.9325,0.00028143,3.266e-05,0.0,0 STARLINK-5580,1 55748U 23028H   24181.52231779  .00003266  00000-0  28143-3 0  9994,2 55748  70.0017   3.1153 0002861 271.1506  88.9325 14.98326669 73445,6950.203,96.107,574.057,570.08,0.0
55748.0,STARLINK-5580,PAYLOAD,2024-06-29 14:08:16,14.98325954,0.0002878,70.0016,2.947,271.1769,88.9061,0.00024642,2.848e-05,0.0,0 STARLINK-5580,1 55748U 23028H   24181.58907834  .00002848  00000-0  24642-3 0  9997,2 55748  70.0016   2.9470 0002878 271.1769  88.9061 14.98325954 73456,6950.205,96.107,574.071,570.07,0.0
55748.0,STARLINK-5580,PAYLOAD,2024-06-29 22:08:56,14.98325822,0.0002928,70.0015,2.1057,272.1926,87.8898,0.00020254,2.324e-05,0.0,0 STARLINK-5580,1 55748U 23028H   24181.92287989  .00002324  00000-0  20254-3 0  9991,2 55748  70.0015   2.1057 0002928 272.1926  87.8898 14.98325822 73506,6950.206,96.107,574.106,570.036,0.0
55748.0,STARLINK-5580,PAYLOAD,2024-06-30 14:10:17,14.9833334,0.0002959,70.0019,0.4225,272.2583,87.8237,0.00013094,1.47e-05,0.0,0 STARLINK-5580,1 55748U 23028H   24182.59047648  .00001470  00000-0  13094-3 0  9996,2 55748  70.0019   0.4225 0002959 272.2583  87.8237 14.98333340 73604,6950.183,96.107,574.104,569.991,0.0
55748.0,STARLINK-5580,PAYLOAD,2024-06-30 20:34:49,14.98336582,0.0002987,70.0015,359.7491,272.8332,87.2485,0.00010495,1.16e-05,0.0,0 STARLINK-5580,1 55748U 23028H   24182.85751408  .00001160  00000-0  10495-3 0  9999,2 55748  70.0015 359.7491 0002987 272.8332  87.2485 14.98336582 73648,6950.173,96.107,574.114,569.962,0.0
55748.0,STARLINK-5580,PAYLOAD,2024-06-30 22:10:57,14.98337272,0.0002984,70.0016,359.5808,272.8552,87.2266,0.00011598,1.291e-05,0.0,0 STARLINK-5580,1 55748U 23028H   24182.92427345  .00001291  00000-0  11598-3 0  9997,2 55748  70.0016 359.5808 0002984 272.8552  87.2266 14.98337272 73655,6950.17,96.107,574.109,569.961,0.0
55748.0,STARLINK-5580,PAYLOAD,2024-07-01 12:36:10,14.98328454,0.000301,70.0002,358.0657,271.8991,88.1823,0.00015488,1.755e-05,0.0,0 STARLINK-5580,1 55748U 23028H   24183.52511761  .00001755  00000-0  15488-3 0  9997,2 55748  70.0002 358.0657 0003010 271.8991  88.1823 14.98328454 73744,6950.198,96.107,574.155,569.971,0.0
55748.0,STARLINK-5580,PAYLOAD,2024-07-01 14:12:18,14.98322545,0.0003016,70.0004,357.898,270.7442,89.3371,0.00027496,3.189e-05,0.0,0 STARLINK-5580,1 55748U 23028H   24183.59187966  .00003189  00000-0  27496-3 0  9995,2 55748  70.0004 357.8980 0003016 270.7442  89.3371 14.98322545 73754,6950.216,96.107,574.177,569.985,0.0
55748.0,STARLINK-5580,PAYLOAD,2024-07-01 20:36:50,14.98331523,0.0003101,70.0004,357.2247,269.2645,90.8159,0.00018481,2.113e-05,0.0,0 STARLINK-5580,1 55748U 23028H   24183.85891546  .00002113  00000-0  18481-3 0  9990,2 55748  70.0004 357.2247 0003101 269.2645  90.8159 14.98331523 73798,6950.188,96.107,574.208,569.898,0.0
55748.0,STARLINK-5580,PAYLOAD,2024-07-02 12:38:11,14.9833133,0.0003012,70.0006,355.5424,266.4911,93.5903,6.166e-05,6.43e-06,0.0,0 STARLINK-5580,1 55748U 23028H   24184.52651813  .00000643  00000-0  61660-4 0  9990,2 55748  70.0006 355.5424 0003012 266.4911  93.5903 14.98331330 73898,6950.189,96.107,574.147,569.96,0.0
55748.0,STARLINK-5580,PAYLOAD,2024-07-02 14:14:19,14.98330682,0.0002972,70.0006,355.3741,266.3962,93.6858,4.8395e-05,4.85e-06,0.0,0 STARLINK-5580,1 55748U 23028H   24184.59327882  .00000485  00000-0  48395-4 0  9997,2 55748  70.0006 355.3741 0002972 266.3962  93.6858 14.98330682 73908,6950.191,96.107,574.121,569.99,0.0
55748.0,STARLINK-5580,PAYLOAD,2024-07-02 20:38:51,14.98331359,0.0002964,70.0006,354.7001,268.8431,91.2388,4.3654e-05,4.28e-06,0.0,0 STARLINK-5580,1 55748U 23028H   24184.86031833  .00000428  00000-0  43654-4 0  9995,2 55748  70.0006 354.7001 0002964 268.8431  91.2388 14.98331359 73947,6950.189,96.107,574.114,569.994,0.0
55748.0,STARLINK-5580,PAYLOAD,2024-07-03 12:40:12,14.98329603,0.0003251,70.0002,353.0163,269.3171,90.7615,9.4414e-05,1.034e-05,0.0,0 STARLINK-5580,1 55748U 23028H   24185.52791708  .00001034  00000-0  94414-4 0  9997,2 55748  70.0002 353.0163 0003251 269.3171  90.7615 14.98329603 74049,6950.194,96.107,574.319,569.8,0.0
55748.0,STARLINK-5580,PAYLOAD,2024-07-03 20:40:52,14.98332053,0.0003599,70.0006,352.1748,274.5148,85.56,4.8549e-05,4.86e-06,0.0,0 STARLINK-5580,1 55748U 23028H   24185.86171651  .00000486  00000-0  48549-4 0  9991,2 55748  70.0006 352.1748 0003599 274.5148  85.5600 14.98332053 74093,6950.187,96.107,574.553,569.55,0.0
55748.0,STARLINK-5580,PAYLOAD,2024-07-04 12:42:13,14.98326627,0.0003196,70.0,350.4905,270.3077,89.7716,0.00011904,1.328e-05,0.0,0 STARLINK-5580,1 55748U 23028H   24186.52931865  .00001328  00000-0  11904-3 0  9996,2 55748  70.0000 350.4905 0003196 270.3077  89.7716 14.98326627 74196,6950.203,96.107,574.29,569.847,0.0
55748.0,STARLINK-5580,PAYLOAD,2024-07-04 14:18:21,14.98326878,0.0003199,70.0,350.3222,270.2706,89.8087,0.00012087,1.349e-05,0.0,0 STARLINK-5580,1 55748U 23028H   24186.59607870  .00001349  00000-0  12087-3 0  9995,2 55748  70.0000 350.3222 0003199 270.2706  89.8087 14.98326878 74200,6950.203,96.107,574.291,569.844,0.0
